IRIDIUM 144             
1 43249U 18030A   25332.08795495  .00000300  00000+0  10009-3 0  9991
2 43249  86.3983  14.4716 0002197  98.6454 261.4991 14.34219510401310
IRIDIUM 149             
1 43250U 18030B   25332.09429372  .00000186  00000+0  59277-4 0  9995
2 43250  86.3983  14.4379 0002175  96.6050 263.5393 14.34216547401331
IRIDIUM 157             
1 43251U 18030C   25332.18309566 -.00000052  00000+0 -25503-4 0  9997
2 43251  86.3981  14.4494 0002226  91.6731 268.4720 14.34217345401320
IRIDIUM 140             
1 43252U 18030D   25332.13235840  .00000297  00000+0  98893-4 0  9997
2 43252  86.3985  14.4840 0002121  97.8094 262.3343 14.34220745401371
IRIDIUM 145             
1 43253U 18030E   25332.18943692  .00000236  00000+0  77184-4 0  9997
2 43253  86.3984  14.4328 0002252 104.7166 255.4279 14.34219062401310
IRIDIUM 146             
1 43254U 18030F   25332.10064132  .00000090  00000+0  25184-4 0  9994
2 43254  86.3983  14.4828 0002247  99.4675 260.6775 14.34217679401315
IRIDIUM 148             
1 43255U 18030G   25332.13869788  .00000258  00000+0  85205-4 0  9994
2 43255  86.3989  14.5075 0002332  92.2527 267.8936 14.34218533401351
IRIDIUM 142             
1 43256U 18030H   25332.10698359  .00000193  00000+0  61753-4 0  9996
2 43256  86.3982  14.4166 0002311 104.5878 255.5575 14.34219608401311
